{
  "type": "FeatureCollection",
  "features": [
    {
      "type": "Feature",
      "properties": {
        "norad_id": 50032,
        "name": "COSMOS 1408 DEB",
        "group": "cosmos-1408-debris",
        "lat": 25.65095013102157,
        "lon": -140.02325646469652,
        "alt_km": 416.85510348504795,
        "timestamp": "2025-12-27T07:26:25.492262+00:00",
        "meta_object_name": "COSMOS 1408 DEB",
        "meta_object_id": "1982-092RU",
        "meta_epoch": "2025-12-26T13:41:14.334720",
        "meta_mean_motion": 15.45830643,
        "meta_eccentricity": 0.0016663,
        "meta_inclination": 82.5631,
        "meta_ra_of_asc_node": 44.3315,
        "meta_arg_of_pericenter": 157.9043,
        "meta_mean_anomaly": 202.2928,
        "meta_ephemeris_type": 0,
        "meta_classification_type": "U",
        "meta_norad_cat_id": 50032,
        "meta_element_set_no": 999,
        "meta_rev_at_epoch": 22817,
        "meta_bstar": 0.0001035,
        "meta_mean_motion_dot": 5.085e-05,
        "meta_mean_motion_ddot": 0,
        "tle_line1": "1 50032U 82092RU  25360.57030480  .00005085  00000+0  10350-3 0  9993",
        "tle_line2": "2 50032  82.5631  44.3315 0016663 157.9043 202.2928 15.45830643228172"
      },
      "geometry": {
        "type": "Point",
        "coordinates": [
          -140.02325646469652,
          25.65095013102157
        ]
      }
    },
    {
      "type": "Feature",
      "properties": {
        "norad_id": 50058,
        "name": "COSMOS 1408 DEB",
        "group": "cosmos-1408-debris",
        "lat": -76.55883334969208,
        "lon": -93.0331597018108,
        "alt_km": 389.85546610517395,
        "timestamp": "2025-12-27T07:26:25.492283+00:00",
        "meta_object_name": "COSMOS 1408 DEB",
        "meta_object_id": "1982-092SW",
        "meta_epoch": "2025-12-26T13:27:27.815040",
        "meta_mean_motion": 15.64941928,
        "meta_eccentricity": 0.0015789,
        "meta_inclination": 82.6117,
        "meta_ra_of_asc_node": 54.8668,
        "meta_arg_of_pericenter": 51.6481,
        "meta_mean_anomaly": 308.6195,
        "meta_ephemeris_type": 0,
        "meta_classification_type": "U",
        "meta_norad_cat_id": 50058,
        "meta_element_set_no": 999,
        "meta_rev_at_epoch": 23020,
        "meta_bstar": 0.00032591,
        "meta_mean_motion_dot": 0.00032187,
        "meta_mean_motion_ddot": 0,
        "tle_line1": "1 50058U 82092SW  25360.56073860  .00032187  00000+0  32591-3 0  9993",
        "tle_line2": "2 50058  82.6117  54.8668 0015789  51.6481 308.6195 15.64941928230205"
      },
      "geometry": {
        "type": "Point",
        "coordinates": [
          -93.0331597018108,
          -76.55883334969208
        ]
      }
    },
    {
      "type": "Feature",
      "properties": {
        "norad_id": 50404,
        "name": "COSMOS 1408 DEB",
        "group": "cosmos-1408-debris",
        "lat": -66.40034107657934,
        "lon": -178.1901531235598,
        "alt_km": 615.8693186865175,
        "timestamp": "2025-12-27T07:26:25.492296+00:00",
        "meta_object_name": "COSMOS 1408 DEB",
        "meta_object_id": "1982-092ADS",
        "meta_epoch": "2025-12-26T20:39:36.345312",
        "meta_mean_motion": 15.16126351,
        "meta_eccentricity": 0.01657217,
        "meta_inclination": 82.2021,
        "meta_ra_of_asc_node": 200.5526,
        "meta_arg_of_pericenter": 150.2219,
        "meta_mean_anomaly": 210.8575,
        "meta_ephemeris_type": 0,
        "meta_classification_type": "U",
        "meta_norad_cat_id": 50404,
        "meta_element_set_no": 999,
        "meta_rev_at_epoch": 21407,
        "meta_bstar": 0.0039185275,
        "meta_mean_motion_dot": 0.00108762,
        "meta_mean_motion_ddot": 0,
        "tle_line1": "1 50404U 82092ADS 25360.86083733  .00108762  00000+0  39185-2 0  9999",
        "tle_line2": "2 50404  82.2021 200.5526 0165721 150.2219 210.8575 15.16126351214075"
      },
      "geometry": {
        "type": "Point",
        "coordinates": [
          -178.1901531235598,
          -66.40034107657934
        ]
      }
    },
    {
      "type": "Feature",
      "properties": {
        "norad_id": 50621,
        "name": "COSMOS 1408 DEB",
        "group": "cosmos-1408-debris",
        "lat": -61.45559854780291,
        "lon": -107.11410377208209,
        "alt_km": 417.8472617390562,
        "timestamp": "2025-12-27T07:26:25.492308+00:00",
        "meta_object_name": "COSMOS 1408 DEB",
        "meta_object_id": "1982-092ALR",
        "meta_epoch": "2025-12-26T21:09:11.194848",
        "meta_mean_motion": 15.57392209,
        "meta_eccentricity": 0.00291333,
        "meta_inclination": 82.5695,
        "meta_ra_of_asc_node": 59.4502,
        "meta_arg_of_pericenter": 101.9906,
        "meta_mean_anomaly": 258.4618,
        "meta_ephemeris_type": 0,
        "meta_classification_type": "U",
        "meta_norad_cat_id": 50621,
        "meta_element_set_no": 999,
        "meta_rev_at_epoch": 22470,
        "meta_bstar": 0.00039407538,
        "meta_mean_motion_dot": 0.00029518,
        "meta_mean_motion_ddot": 0,
        "tle_line1": "1 50621U 82092ALR 25360.88137957  .00029518  00000+0  39408-3 0  9990",
        "tle_line2": "2 50621  82.5695  59.4502 0029133 101.9906 258.4618 15.57392209224702"
      },
      "geometry": {
        "type": "Point",
        "coordinates": [
          -107.11410377208209,
          -61.45559854780291
        ]
      }
    }
  ]
}